1 08820U 76039A   03019.82080377  .00000005  00000-0  10000-3 0  8933
2 08820 109.8344 130.7961 0044287 333.0726  26.7624  6.38664730367584
